{
  "type": "FeatureCollection",
  "features": [
    {
      "type": "Feature",
      "properties": {
        "norad_id": 36679,
        "name": "FENGYUN 1C DEB",
        "group": "fengyun-1c-debris",
        "lat": 36.57157672275193,
        "lon": -28.217886315961838,
        "alt_km": 852.2639906933318,
        "timestamp": "2025-12-08T03:50:07.285488+00:00",
        "meta_object_name": "FENGYUN 1C DEB",
        "meta_object_id": "1999-025DYZ",
        "meta_epoch": "2025-12-02T05:45:43.795008",
        "meta_mean_motion": 14.04609463,
        "meta_eccentricity": 0.0085974,
        "meta_inclination": 98.8351,
        "meta_ra_of_asc_node": 332.6471,
        "meta_arg_of_pericenter": 122.6149,
        "meta_mean_anomaly": 238.3353,
        "meta_ephemeris_type": 0,
        "meta_classification_type": "U",
        "meta_norad_cat_id": 36679,
        "meta_element_set_no": 999,
        "meta_rev_at_epoch": 24401,
        "meta_bstar": 0.00048108,
        "meta_mean_motion_dot": 7.53e-06,
        "meta_mean_motion_ddot": 0,
        "tle_line1": "1 36679U 99025DYZ 25336.24009022  .00000753  00000+0  48108-3 0  9992",
        "tle_line2": "2 36679  98.8351 332.6471 0085974 122.6149 238.3353 14.04609463244016"
      },
      "geometry": {
        "type": "Point",
        "coordinates": [
          -28.217886315961838,
          36.57157672275193
        ]
      }
    },
    {
      "type": "Feature",
      "properties": {
        "norad_id": 36680,
        "name": "FENGYUN 1C DEB",
        "group": "fengyun-1c-debris",
        "lat": 45.98183846365076,
        "lon": 163.39738058668803,
        "alt_km": 910.8351750732563,
        "timestamp": "2025-12-08T03:50:07.285498+00:00",
        "meta_object_name": "FENGYUN 1C DEB",
        "meta_object_id": "1999-025DZA",
        "meta_epoch": "2025-12-06T11:17:57.560640",
        "meta_mean_motion": 14.18607408,
        "meta_eccentricity": 0.01884816,
        "meta_inclination": 98.547,
        "meta_ra_of_asc_node": 332.8154,
        "meta_arg_of_pericenter": 267.6261,
        "meta_mean_anomaly": 246.4746,
        "meta_ephemeris_type": 0,
        "meta_classification_type": "U",
        "meta_norad_cat_id": 36680,
        "meta_element_set_no": 999,
        "meta_rev_at_epoch": 64208,
        "meta_bstar": 0.0010620077,
        "meta_mean_motion_dot": 2.579e-05,
        "meta_mean_motion_ddot": 0,
        "tle_line1": "1 36680U 99025DZA 25340.47080510  .00002579  00000+0  10620-2 0  9990",
        "tle_line2": "2 36680  98.5470 332.8154 0188481 267.6261 246.4746 14.18607408642086"
      },
      "geometry": {
        "type": "Point",
        "coordinates": [
          163.39738058668803,
          45.98183846365076
        ]
      }
    },
    {
      "type": "Feature",
      "properties": {
        "norad_id": 36681,
        "name": "FENGYUN 1C DEB",
        "group": "fengyun-1c-debris",
        "lat": 64.89962968791832,
        "lon": 179.9981645017279,
        "alt_km": 863.8810257098876,
        "timestamp": "2025-12-08T03:50:07.285508+00:00",
        "meta_object_name": "FENGYUN 1C DEB",
        "meta_object_id": "1999-025DZB",
        "meta_epoch": "2025-11-19T06:21:10.816992",
        "meta_mean_motion": 14.10187867,
        "meta_eccentricity": 0.00454,
        "meta_inclination": 98.6964,
        "meta_ra_of_asc_node": 322.6587,
        "meta_arg_of_pericenter": 56.031,
        "meta_mean_anomaly": 304.5163,
        "meta_ephemeris_type": 0,
        "meta_classification_type": "U",
        "meta_norad_cat_id": 36681,
        "meta_element_set_no": 999,
        "meta_rev_at_epoch": 72427,
        "meta_bstar": 0.00080116575,
        "meta_mean_motion_dot": 1.39e-05,
        "meta_mean_motion_ddot": 0,
        "tle_line1": "1 36681U 99025DZB 25323.26470853  .00001390  00000+0  80117-3 0  9991",
        "tle_line2": "2 36681  98.6964 322.6587 0045400  56.0310 304.5163 14.10187867724276"
      },
      "geometry": {
        "type": "Point",
        "coordinates": [
          179.9981645017279,
          64.89962968791832
        ]
      }
    },
    {
      "type": "Feature",
      "properties": {
        "norad_id": 36682,
        "name": "FENGYUN 1C DEB",
        "group": "fengyun-1c-debris",
        "lat": -81.09990591033956,
        "lon": -41.099071642745365,
        "alt_km": 840.736720296848,
        "timestamp": "2025-12-08T03:50:07.285518+00:00",
        "meta_object_name": "FENGYUN 1C DEB",
        "meta_object_id": "1999-025DZC",
        "meta_epoch": "2025-12-06T04:55:28.030656",
        "meta_mean_motion": 13.7010637,
        "meta_eccentricity": 0.02343342,
        "meta_inclination": 98.485,
        "meta_ra_of_asc_node": 244.7666,
        "meta_arg_of_pericenter": 294.8114,
        "meta_mean_anomaly": 62.8827,
        "meta_ephemeris_type": 0,
        "meta_classification_type": "U",
        "meta_norad_cat_id": 36682,
        "meta_element_set_no": 999,
        "meta_rev_at_epoch": 61303,
        "meta_bstar": 0.0027042096,
        "meta_mean_motion_dot": 2.849e-05,
        "meta_mean_motion_ddot": 0,
        "tle_line1": "1 36682U 99025DZC 25340.20518554  .00002849  00000+0  27042-2 0  9993",
        "tle_line2": "2 36682  98.4850 244.7666 0234334 294.8114  62.8827 13.70106370613038"
      },
      "geometry": {
        "type": "Point",
        "coordinates": [
          -41.099071642745365,
          -81.09990591033956
        ]
      }
    },
    {
      "type": "Feature",
      "properties": {
        "norad_id": 36684,
        "name": "FENGYUN 1C DEB",
        "group": "fengyun-1c-debris",
        "lat": -55.351322339822936,
        "lon": -120.59658296812253,
        "alt_km": 592.1134534486873,
        "timestamp": "2025-12-08T03:50:07.285529+00:00",
        "meta_object_name": "FENGYUN 1C DEB",
        "meta_object_id": "1999-025DZE",
        "meta_epoch": "2025-12-06T12:14:44.780928",
        "meta_mean_motion": 14.95413524,
        "meta_eccentricity": 0.00202722,
        "meta_inclination": 99.4556,
        "meta_ra_of_asc_node": 71.3705,
        "meta_arg_of_pericenter": 131.6133,
        "meta_mean_anomaly": 228.6824,
        "meta_ephemeris_type": 0,
        "meta_classification_type": "U",
        "meta_norad_cat_id": 36684,
        "meta_element_set_no": 999,
        "meta_rev_at_epoch": 65808,
        "meta_bstar": 0.0068344415,
        "meta_mean_motion_dot": 0.00076555,
        "meta_mean_motion_ddot": 0,
        "tle_line1": "1 36684U 99025DZE 25340.51024052  .00076555  00000+0  68344-2 0  9999",
        "tle_line2": "2 36684  99.4556  71.3705 0020272 131.6133 228.6824 14.95413524658088"
      },
      "geometry": {
        "type": "Point",
        "coordinates": [
          -120.59658296812253,
          -55.351322339822936
        ]
      }
    },
    {
      "type": "Feature",
      "properties": {
        "norad_id": 36686,
        "name": "FENGYUN 1C DEB",
        "group": "fengyun-1c-debris",
        "lat": 66.28922497473106,
        "lon": 151.8796571431207,
        "alt_km": 558.0378062883092,
        "timestamp": "2025-12-08T03:50:07.285538+00:00",
        "meta_object_name": "FENGYUN 1C DEB",
        "meta_object_id": "1999-025DZG",
        "meta_epoch": "2025-12-06T19:01:08.515488",
        "meta_mean_motion": 14.77100685,
        "meta_eccentricity": 0.01052852,
        "meta_inclination": 99.0007,
        "meta_ra_of_asc_node": 171.5106,
        "meta_arg_of_pericenter": 71.9527,
        "meta_mean_anomaly": 289.3118,
        "meta_ephemeris_type": 0,
        "meta_classification_type": "U",
        "meta_norad_cat_id": 36686,
        "meta_element_set_no": 999,
        "meta_rev_at_epoch": 65764,
        "meta_bstar": 0.0014007334,
        "meta_mean_motion_dot": 0.00010793,
        "meta_mean_motion_ddot": 0,
        "tle_line1": "1 36686U 99025DZG 25340.79245967  .00010793  00000+0  14007-2 0  9990",
        "tle_line2": "2 36686  99.0007 171.5106 0105285  71.9527 289.3118 14.77100685657648"
      },
      "geometry": {
        "type": "Point",
        "coordinates": [
          151.8796571431207,
          66.28922497473106
        ]
      }
    },
    {
      "type": "Feature",
      "properties": {
        "norad_id": 36687,
        "name": "FENGYUN 1C DEB",
        "group": "fengyun-1c-debris",
        "lat": -16.281952414849734,
        "lon": 71.34301496849007,
        "alt_km": 854.9049757369567,
        "timestamp": "2025-12-08T03:50:07.285548+00:00",
        "meta_object_name": "FENGYUN 1C DEB",
        "meta_object_id": "1999-025DZH",
        "meta_epoch": "2025-12-03T00:48:50.166144",
        "meta_mean_motion": 14.04517636,
        "meta_eccentricity": 0.00903358,
        "meta_inclination": 98.7164,
        "meta_ra_of_asc_node": 63.8535,
        "meta_arg_of_pericenter": 292.8526,
        "meta_mean_anomaly": 66.3122,
        "meta_ephemeris_type": 0,
        "meta_classification_type": "U",
        "meta_norad_cat_id": 36687,
        "meta_element_set_no": 999,
        "meta_rev_at_epoch": 62586,
        "meta_bstar": 0.00040937059,
        "meta_mean_motion_dot": 6.35e-06,
        "meta_mean_motion_ddot": 0,
        "tle_line1": "1 36687U 99025DZH 25337.03391396  .00000635  00000+0  40937-3 0  9998",
        "tle_line2": "2 36687  98.7164  63.8535 0090335 292.8526  66.3122 14.04517636625865"
      },
      "geometry": {
        "type": "Point",
        "coordinates": [
          71.34301496849007,
          -16.281952414849734
        ]
      }
    }
  ]
}